[
  {
    "Office": "342 B R PROJECT SO",
    "Pincode": "577115",
    "District": "R",
    "State": "PROJECT."
  },
  {
    "Office": "343 BHADRAVATHI R.S. PO",
    "Pincode": "577301",
    "District": "ROAD,",
    "State": "BHADRAVATHI"
  },
  {
    "Office": "344 HOLEHONNUR SO",
    "Pincode": "577227",
    "District": "STAND,",
    "State": "HOLEHONNUR"
  },
  {
    "Office": "345 SANTHEBENNUR SO",
    "Pincode": "577552",
    "District": "ROAD,",
    "State": "SANTHEBENNUR"
  },
  {
    "Office": "346 SASVEHALLI SO",
    "Pincode": "577224",
    "District": "EXCHANGE,",
    "State": "SASVEHALLI"
  },
  {
    "Office": "347 ANANDAPURAM SO",
    "Pincode": "577412",
    "District": "ROAD,",
    "State": "ANANDAPURAM"
  },
  {
    "Office": "348 AVINAHALLI SO",
    "Pincode": "577453",
    "District": "ROAD,",
    "State": "AVINAHALLI"
  },
  {
    "Office": "349 KARGAL COLONY SO",
    "Pincode": "577421",
    "District": "KARGAL",
    "State": "COLONY."
  },
  {
    "Office": "350 TALAGUPPA SO",
    "Pincode": "577430",
    "District": "ROAD,",
    "State": "TALAGUPPA"
  },
  {
    "Office": "351 DEVANGI SO",
    "Pincode": "577415",
    "District": "ROAD,",
    "State": "DEVANGI"
  },
  {
    "Office": "352 HITHLA SO",
    "Pincode": "577214",
    "District": "ROAD,",
    "State": "HITHLA"
  },
  {
    "Office": "353 KONANDUR SO",
    "Pincode": "577422",
    "District": "ROAD,",
    "State": "KONANDUR"
  },
  {
    "Office": "354 KUNDUR SO",
    "Pincode": "577219",
    "District": "ROAD,",
    "State": "KUNDUR"
  },
  {
    "Office": "355 NYAMATHI SO",
    "Pincode": "577223",
    "District": "STAND,",
    "State": "NYAMATHI"
  },
  {
    "Office": "356 RIPPONPETE SO",
    "Pincode": "577426",
    "District": "ANANDAPURA-THIRTHAHALLI",
    "State": "ROAD,"
  },
  {
    "Office": "1179 Sangola",
    "Pincode": "413307",
    "District": "Pin",
    "State": "413307"
  },
  {
    "Office": "1180 Mangalvedha",
    "Pincode": "413305",
    "District": "Solapur",
    "State": "Pin"
  },
  {
    "Office": "1181 Karmala",
    "Pincode": "413203",
    "District": "Pin",
    "State": "413203"
  },
  {
    "Office": "1182 Kurduwadi",
    "Pincode": "413208",
    "District": "Pin",
    "State": "413208"
  },
  {
    "Office": "1183 Madha",
    "Pincode": "413209",
    "District": "Pin",
    "State": "413209"
  },
  {
    "Office": "1184 Natepute",
    "Pincode": "413109",
    "District": "Dist",
    "State": "Solapur"
  },
  {
    "Office": "1185 Jeur",
    "Pincode": "413202",
    "District": "Solapur",
    "State": "Pin"
  },
  {
    "Office": "1186 Malshiras",
    "Pincode": "413107",
    "District": "Pin",
    "State": "413107"
  },
  {
    "Office": "1187 Mahud",
    "Pincode": "413306",
    "District": "Solapur",
    "State": "Pin"
  },
  {
    "Office": "1188 Modnimb",
    "Pincode": "413301",
    "District": "Pin",
    "State": "413301"
  },
  {
    "Office": "1189 Navi Peth",
    "Pincode": "413304",
    "District": "Tal",
    "State": "Pandharpur"
  },
  {
    "Office": "1190 Piliv",
    "Pincode": "413310",
    "District": "Solapur",
    "State": "Pin"
  },
  {
    "Office": "1191 Shreepur",
    "Pincode": "413112",
    "District": "Tal",
    "State": "Malshiras"
  },
  {
    "Office": "1192 Tembhurni",
    "Pincode": "413211",
    "District": "Dist",
    "State": "Solapur"
  },
  {
    "Office": "1193 Velapur",
    "Pincode": "413113",
    "District": "Solapur",
    "State": "Pin"
  },
  {
    "Office": "1194 Jawala",
    "Pincode": "413309",
    "District": "Pin",
    "State": "413309"
  },
  {
    "Office": "1195 Karkam",
    "Pincode": "413302",
    "District": "Pin",
    "State": "413302"
  },
  {
    "Office": "1196 Akluj SO",
    "Pincode": "413101",
    "District": "Malshiras",
    "State": "Dist"
  },
  {
    "Office": "development, Chennai",
    "Pincode": "600051",
    "District": "Chennai",
    "State": "600"
  },
  {
    "Office": "509 Chettikulam S.O--",
    "Pincode": "621104",
    "District": "North",
    "State": "Street"
  }
]